{"type": "FeatureCollection", "features": [ {"type": "Feature", "properties": {"norad_id": 66560, "name": "STARLINK-35411", "group": "last-30-days", "lat": 20.018422826468242, "lon": -122.5615075399833, "alt_km": 412.7159251337598, "timestamp": "2025-12-19T16:54:42.965583+00:00", "meta": {"OBJECT_NAME": "STARLINK-35411", "OBJECT_ID": "2025-268D", "EPOCH": "2025-12-19T06:59:37.483584", "MEAN_MOTION": 15.50621258, "ECCENTRICITY": 0.00016787, "INCLINATION": 43.0001, "RA_OF_ASC_NODE": 82.872, "ARG_OF_PERICENTER": 330.88, "MEAN_ANOMALY": 29.1966, "EPHEMERIS_TYPE": 0, "CLASSIFICATION_TYPE": "U", "NORAD_CAT_ID": 66560, "ELEMENT_SET_NO": 999, "REV_AT_EPOCH": 564, "BSTAR": 0.0011402266, "MEAN_MOTION_DOT": 0.00067228, "MEAN_MOTION_DDOT": 0}, "tle": {"line1": "1 66560U 25268D   25353.29140606  .00067228  00000+0  11402-2 0  9996", "line2": "2 66560  43.0001  82.8720 0001678 330.8800  29.1966 15.50621258  5647"}}, "geometry": {"type": "Point", "coordinates": [-122.5615075399833, 20.018422826468242]}}, {"type": "Feature", "properties": {"norad_id": 66561, "name": "STARLINK-35305", "group": "last-30-days", "lat": 17.59588227309014, "lon": -119.45340454779489, "alt_km": 412.4563517921488, "timestamp": "2025-12-19T16:54:42.965594+00:00", "meta": {"OBJECT_NAME": "STARLINK-35305", "OBJECT_ID": "2025-268E", "EPOCH": "2025-12-19T06:58:37.855488", "MEAN_MOTION": 15.50608489, "ECCENTRICITY": 9.597e-05, "INCLINATION": 43.0006, "RA_OF_ASC_NODE": 82.8654, "ARG_OF_PERICENTER": 279.6811, "MEAN_ANOMALY": 80.3941, "EPHEMERIS_TYPE": 0, "CLASSIFICATION_TYPE": "U", "NORAD_CAT_ID": 66561, "ELEMENT_SET_NO": 999, "REV_AT_EPOCH": 564, "BSTAR": 0.00082773296, "MEAN_MOTION_DOT": 0.0004857, "MEAN_MOTION_DDOT": 0}, "tle": {"line1": "1 66561U 25268E   25353.29071592  .00048570  00000+0  82773-3 0  9993", "line2": "2 66561  43.0006  82.8654 0000959 279.6811  80.3941 15.50608489  5645"}}, "geometry": {"type": "Point", "coordinates": [-119.45340454779489, 17.59588227309014]}}, {"type": "Feature", "properties": {"norad_id": 66562, "name": "STARLINK-35579", "group": "last-30-days", "lat": 18.83531409881409, "lon": -121.02194886037607, "alt_km": 412.3325392398392, "timestamp": "2025-12-19T16:54:42.965605+00:00", "meta": {"OBJECT_NAME": "STARLINK-35579", "OBJECT_ID": "2025-268F", "EPOCH": "2025-12-19T06:59:07.650528", "MEAN_MOTION": 15.50615336, "ECCENTRICITY": 0.00026676, "INCLINATION": 43.0018, "RA_OF_ASC_NODE": 82.8697, "ARG_OF_PERICENTER": 256.9394, "MEAN_ANOMALY": 103.1168, "EPHEMERIS_TYPE": 0, "CLASSIFICATION_TYPE": "U", "NORAD_CAT_ID": 66562, "ELEMENT_SET_NO": 999, "REV_AT_EPOCH": 564, "BSTAR": 0.0012581944, "MEAN_MOTION_DOT": 0.00074275, "MEAN_MOTION_DDOT": 0}, "tle": {"line1": "1 66562U 25268F   25353.29106077  .00074275  00000+0  12582-2 0  9992", "line2": "2 66562  43.0018  82.8697 0002667 256.9394 103.1168 15.50615336  5642"}}, "geometry": {"type": "Point", "coordinates": [-121.02194886037607, 18.83531409881409]}}, {"type": "Feature", "properties": {"norad_id": 66563, "name": "STARLINK-35437", "group": "last-30-days", "lat": 16.352187182651416, "lon": -117.91513805819139, "alt_km": 413.0911518351495, "timestamp": "2025-12-19T16:54:42.965615+00:00", "meta": {"OBJECT_NAME": "STARLINK-35437", "OBJECT_ID": "2025-268G", "EPOCH": "2025-12-19T06:58:08.497632", "MEAN_MOTION": 15.50620192, "ECCENTRICITY": 0.00014679, "INCLINATION": 42.9989, "RA_OF_ASC_NODE": 82.8626, "ARG_OF_PERICENTER": 312.0667, "MEAN_ANOMALY": 48.0068, "EPHEMERIS_TYPE": 0, "CLASSIFICATION_TYPE": "U", "NORAD_CAT_ID": 66563, "ELEMENT_SET_NO": 999, "REV_AT_EPOCH": 564, "BSTAR": 0.0011303807, "MEAN_MOTION_DOT": 0.00066637, "MEAN_MOTION_DDOT": 0}, "tle": {"line1": "1 66563U 25268G   25353.29037613  .00066637  00000+0  11304-2 0  9996", "line2": "2 66563  42.9989  82.8626 0001467 312.0667  48.0068 15.50620192  5646"}}, "geometry": {"type": "Point", "coordinates": [-117.91513805819139, 16.352187182651416]}}, {"type": "Feature", "properties": {"norad_id": 66564, "name": "STARLINK-35358", "group": "last-30-days", "lat": 15.101421955841358, "lon": -116.39657933224346, "alt_km": 413.2738433046752, "timestamp": "2025-12-19T16:54:42.965625+00:00", "meta": {"OBJECT_NAME": "STARLINK-35358", "OBJECT_ID": "2025-268H", "EPOCH": "2025-12-19T06:57:39.121632", "MEAN_MOTION": 15.50615686, "ECCENTRICITY": 0.00017441, "INCLINATION": 43.0001, "RA_OF_ASC_NODE": 82.8624, "ARG_OF_PERICENTER": 17.0019, "MEAN_ANOMALY": 343.0899, "EPHEMERIS_TYPE": 0, "CLASSIFICATION_TYPE": "U", "NORAD_CAT_ID": 66564, "ELEMENT_SET_NO": 999, "REV_AT_EPOCH": 564, "BSTAR": 0.00093905457, "MEAN_MOTION_DOT": 0.0005521, "MEAN_MOTION_DDOT": 0}, "tle": {"line1": "1 66564U 25268H   25353.29003613  .00055210  00000+0  93905-3 0  9993", "line2": "2 66564  43.0001  82.8624 0001744  17.0019 343.0899 15.50615686  5645"}}, "geometry": {"type": "Point", "coordinates": [-116.39657933224346, 15.101421955841358]}}, {"type": "Feature", "properties": {"norad_id": 66565, "name": "STARLINK-35893", "group": "last-30-days", "lat": 13.546428807888349, "lon": -114.55854104229535, "alt_km": 412.54094558763154, "timestamp": "2025-12-19T16:54:42.965636+00:00", "meta": {"OBJECT_NAME": "STARLINK-35893", "OBJECT_ID": "2025-268J", "EPOCH": "2025-12-18T13:56:48.664320", "MEAN_MOTION": 15.50624497, "ECCENTRICITY": 0.0001387, "INCLINATION": 43.0015, "RA_OF_ASC_NODE": 86.9997, "ARG_OF_PERICENTER": 260.7796, "MEAN_ANOMALY": 99.2908, "EPHEMERIS_TYPE": 0, "CLASSIFICATION_TYPE": "U", "NORAD_CAT_ID": 66565, "ELEMENT_SET_NO": 999, "REV_AT_EPOCH": 553, "BSTAR": 0.0012916172, "MEAN_MOTION_DOT": 0.00076297, "MEAN_MOTION_DDOT": 0}, "tle": {"line1": "1 66565U 25268J   25352.58111880  .00076297  00000+0  12916-2 0  9991", "line2": "2 66565  43.0015  86.9997 0001387 260.7796  99.2908 15.50624497  5530"}}, "geometry": {"type": "Point", "coordinates": [-114.55854104229535, 13.546428807888349]}}, {"type": "Feature", "properties": {"norad_id": 66566, "name": "STARLINK-35871", "group": "last-30-days", "lat": 12.57286287869426, "lon": -113.42458978023711, "alt_km": 412.8313836779753, "timestamp": "2025-12-19T16:54:42.965673+00:00", "meta": {"OBJECT_NAME": "STARLINK-35871", "OBJECT_ID": "2025-268K", "EPOCH": "2025-12-19T06:56:39.236928", "MEAN_MOTION": 15.50620098, "ECCENTRICITY": 0.00012065, "INCLINATION": 42.9983, "RA_OF_ASC_NODE": 82.8541, "ARG_OF_PERICENTER": 254.9508, "MEAN_ANOMALY": 105.1219, "EPHEMERIS_TYPE": 0, "CLASSIFICATION_TYPE": "U", "NORAD_CAT_ID": 66566, "ELEMENT_SET_NO": 999, "REV_AT_EPOCH": 564, "BSTAR": 0.00117749, "MEAN_MOTION_DOT": 0.00069453, "MEAN_MOTION_DDOT": 0}, "tle": {"line1": "1 66566U 25268K   25353.28934302  .00069453  00000+0  11775-2 0  9990", "line2": "2 66566  42.9983  82.8541 0001206 254.9508 105.1219 15.50620098  5646"}}, "geometry": {"type": "Point", "coordinates": [-113.42458978023711, 12.57286287869426]}}, {"type": "Feature", "properties": {"norad_id": 66567, "name": "STARLINK-35825", "group": "last-30-days", "lat": 11.330233564396021, "lon": -111.996540194264, "alt_km": 413.38146624389447, "timestamp": "2025-12-19T16:54:42.965686+00:00", "meta": {"OBJECT_NAME": "STARLINK-35825", "OBJECT_ID": "2025-268L", "EPOCH": "2025-12-19T06:56:09.593088", "MEAN_MOTION": 15.50602196, "ECCENTRICITY": 0.00014798, "INCLINATION": 43.0012, "RA_OF_ASC_NODE": 82.8518, "ARG_OF_PERICENTER": 271.0475, "MEAN_ANOMALY": 89.0216, "EPHEMERIS_TYPE": 0, "CLASSIFICATION_TYPE": "U", "NORAD_CAT_ID": 66567, "ELEMENT_SET_NO": 999, "REV_AT_EPOCH": 564, "BSTAR": 0.00082569569, "MEAN_MOTION_DOT": 0.00048438, "MEAN_MOTION_DDOT": 0}, "tle": {"line1": "1 66567U 25268L   25353.28899992  .00048438  00000+0  82570-3 0  9998", "line2": "2 66567  43.0012  82.8518 0001479 271.0475  89.0216 15.50602196  5647"}}, "geometry": {"type": "Point", "coordinates": [-111.996540194264, 11.330233564396021]}}, {"type": "Feature", "properties": {"norad_id": 66568, "name": "STARLINK-35803", "group": "last-30-days", "lat": 10.070090958282893, "lon": -110.5707332206878, "alt_km": 413.43446237248827, "timestamp": "2025-12-19T16:54:42.965696+00:00", "meta": {"OBJECT_NAME": "STARLINK-35803", "OBJECT_ID": "2025-268M", "EPOCH": "2025-12-19T06:55:41.215008", "MEAN_MOTION": 15.50627845, "ECCENTRICITY": 0.00011994, "INCLINATION": 43.0014, "RA_OF_ASC_NODE": 82.8492, "ARG_OF_PERICENTER": 275.3703, "MEAN_ANOMALY": 84.702, "EPHEMERIS_TYPE": 0, "CLASSIFICATION_TYPE": "U", "NORAD_CAT_ID": 66568, "ELEMENT_SET_NO": 999, "REV_AT_EPOCH": 564, "BSTAR": 0.00099239807, "MEAN_MOTION_DOT": 0.00058415, "MEAN_MOTION_DDOT": 0}, "tle": {"line1": "1 66568U 25268M   25353.28867147  .00058415  00000+0  99240-3 0  9994", "line2": "2 66568  43.0014  82.8492 0001199 275.3703  84.7020 15.50627845  5644"}}, "geometry": {"type": "Point", "coordinates": [-110.5707332206878, 10.070090958282893]}}, {"type": "Feature", "properties": {"norad_id": 66569, "name": "STARLINK-35835", "group": "last-30-days", "lat": 8.743872491536008, "lon": -109.09038234908505, "alt_km": 413.5451227047988, "timestamp": "2025-12-19T16:54:42.965709+00:00", "meta": {"OBJECT_NAME": "STARLINK-35835", "OBJECT_ID": "2025-268N", "EPOCH": "2025-12-19T06:55:10.327872", "MEAN_MOTION": 15.50612089, "ECCENTRICITY": 9.69e-05, "INCLINATION": 42.9976, "RA_OF_ASC_NODE": 82.847, "ARG_OF_PERICENTER": 269.2865, "MEAN_ANOMALY": 90.7884, "EPHEMERIS_TYPE": 0, "CLASSIFICATION_TYPE": "U", "NORAD_CAT_ID": 66569, "ELEMENT_SET_NO": 999, "REV_AT_EPOCH": 564, "BSTAR": 0.00087249405, "MEAN_MOTION_DOT": 0.00051239, "MEAN_MOTION_DDOT": 0}, "tle": {"line1": "1 66569U 25268N   25353.28831398  .00051239  00000+0  87249-3 0  9997", "line2": "2 66569  42.9976  82.8470 0000969 269.2865  90.7884 15.50612089  5640"}}, "geometry": {"type": "Point", "coordinates": [-109.09038234908505, 8.743872491536008]}}]}